satname,norad_id,inclination_deg,eccentricity,mean_motion_rev_per_day,perigee_km,apogee_km,l1,l2
STARLINK-1225,45187,53.1573,0.0001538,15.30995896,471.78601675522987,473.8933771872189,1 45187U 20012K   26109.75536177  .00028528  00000+0  94802-3 0  9999,2 45187  53.1573 208.8837 0001538  25.5474 334.5603 15.30995896341222
STARLINK-1230,45189,53.1559,0.0001628,15.31051048,471.5598584109848,473.790482853743,1 45189U 20012M   26110.41764818  .00027626  00000+0  91696-3 0  9997,2 45189  53.1559 205.8593 0001628  31.7578 328.3521 15.31051048338553
STARLINK-1234,45190,53.0401,0.0009115,15.68277994,357.6824204387203,369.9730221256168,1 45190U 20012N   26110.52063531  .00045824  00000+0  40323-3 0  9996,2 45190  53.0401 119.7077 0009115  58.5173 301.6733 15.68277994342438
STARLINK-1269,45197,53.1556,0.0001197,15.31118078,471.65520552728685,473.2952420936663,1 45197U 20012V   26110.54452406  .00032636  00000+0  10782-2 0  9990,2 45197  53.1556 205.1251 0001197   8.6335 351.4686 15.31118078341323
STARLINK-1154,45198,53.0425,0.0003594,15.5274705,406.27040161319474,411.1487869451621,1 45198U 20012W   26110.41496369  .00039696  00000+0  63549-3 0  9996,2 45198  53.0425 169.8970 0003594 313.9171  46.1541 15.52747050341762
STARLINK-1199,45201,53.1557,0.0001753,15.31043088,471.4979643098686,473.8998673819642,1 45201U 20012Z   26110.51430298  .00028082  00000+0  93209-3 0  9994,2 45201  53.1557 189.5184 0001753  34.2107 325.9007 15.31043088341567
STARLINK-1209,45206,53.0407,0.00124,15.58381121,383.9465085914335,400.7372962694608,1 45206U 20012AE  26110.45273641  .00063190  00000+0  81373-3 0  9997,2 45206  53.0407 131.5217 0012400  43.0600 317.1380 15.58381121341419
STARLINK-1231,45212,53.0356,0.0003588,15.24588277,489.55702388044574,494.48705000535665,1 45212U 20012AL  26110.48308689  .00019096  00000+0  77617-3 0  9990,2 45212  53.0356 183.2783 0003588 296.2279  63.8349 15.24588277341595
STARLINK-1271,45217,53.1559,0.0001758,15.30911786,471.8861823874013,474.2950740214774,1 45217U 20012AR  26110.51325826  .00032778  00000+0  10897-2 0  9999,2 45217  53.1559 189.6599 0001758  35.4156 324.6962 15.30911786341563
STARLINK-1191,45222,53.1552,0.0005065,15.34262876,459.64573996014497,466.57592401394777,1 45222U 20012AW  26110.41579754  .00023061  00000+0  69439-3 0  9997,2 45222  53.1552 164.4119 0005065  16.5654 343.5513 15.34262876341913
STARLINK-1212,45223,53.043,0.000619,15.60237437,382.7830491609202,391.1582524326068,1 45223U 20012AX  26110.59258421  .00068550  00000+0  82380-3 0  9994,2 45223  53.0430 147.0982 0006190 350.0594  10.0295 15.60237437342167
STARLINK-1215,45225,53.1554,0.0001783,15.31039872,471.48700369350627,473.9300152021751,1 45225U 20012AZ  26110.38779606  .00020515  00000+0  68489-3 0  9999,2 45225  53.1554 164.5744 0001783  40.9419 319.1716 15.31039872341869
STARLINK-1221,45227,53.0654,0.0003698,15.43340745,433.7378688011522,438.77779521890716,1 45227U 20012BB  26110.17935026  .00010820  00000+0  24783-3 0  9995,2 45227  53.0654  72.7763 0003698 111.3886 248.7514 15.43340745343110
STARLINK-1222,45228,53.0531,4.79e-05,15.52000035,410.5620071815947,411.2123957000922,1 45228U 20012BC  26110.38085930  .00017568  00000+0  29395-3 0  9999,2 45228  53.0531 142.5283 0000479   5.3729 354.7285 15.52000035342094
STARLINK-1226,45229,53.1562,0.0002686,15.39050417,447.0822901145784,450.74978300581915,1 45229U 20012BD  26110.41886786  .00029377  00000+0  75545-3 0  9991,2 45229  53.1562 163.3413 0002686  36.2468 323.8719 15.39050417341824
STARLINK-1227,45230,53.1543,0.0003678,15.39114271,446.2162896992022,451.238131012341,1 45230U 20012BE  26110.43232059  .00035795  00000+0  91556-3 0  9994,2 45230  53.1543 163.4359 0003678  28.1614 331.9589 15.39114271341947
STARLINK-1246,45235,53.1558,0.0001529,15.31048625,471.6349082959496,473.72988886803614,1 45235U 20012BK  26110.55446891  .00035783  00000+0  11830-2 0  9996,2 45235  53.1558 204.7445 0001529  26.8267 333.2813 15.31048625341389
STARLINK-1270,45237,53.043,0.0005165,15.54000142,401.5571298493478,408.5641730232828,1 45237U 20012BM  26110.41296486  .00045097  00000+0  68838-3 0  9996,2 45237  53.0430 147.1491 0005165   7.2998 352.8086 15.54000142342145
STARLINK-1279,45360,53.0394,0.0005427,15.66110273,366.3852773275894,373.7097568024119,1 45360U 20019A   26110.10531439  .00086341  00000+0  82165-3 0  9992,2 45360  53.0394 256.4324 0005427 299.0768  60.9703 15.66110273337144
STARLINK-1301,45361,53.041,0.0003356,15.7017952,356.12272243711504,360.6442749958542,1 45361U 20019B   26109.71786391  .00067004  00000+0  54262-3 0  9999,2 45361  53.0410 261.9024 0003356 338.3996  21.6879 15.70179520337043
STARLINK-1262,45366,53.1545,5.1e-05,15.30076633,475.2339060508575,475.9329855363294,1 45366U 20019G   26110.03526232  .00017139  00000+0  59169-3 0  9992,2 45366  53.1545 333.2576 0000510 132.7353 227.3690 15.30076633336081
STARLINK-1273,45367,53.0476,0.0003192,15.50343392,413.55408385911505,417.8912838812985,1 45367U 20019H   26109.87098930  .00049969  00000+0  86836-3 0  9999,2 45367  53.0476 317.9771 0003192 181.6087 178.4912 15.50343392336271
STARLINK-1277,45369,53.0483,0.0005146,15.56102853,395.46117707555186,402.4361536423394,1 45369U 20019K   26110.27760179  .00048259  00000+0  68131-3 0  9997,2 45369  53.0483 312.2664 0005146 182.8127 177.2855 15.56102853336396
STARLINK-1281,45370,53.1592,7.04e-05,15.31022861,472.2769521720684,473.24155836480986,1 45370U 20019L   26110.01172122  .00025037  00000+0  83318-3 0  9999,2 45370  53.1592 333.3091 0000704 147.6577 212.4467 15.31022861336081
STARLINK-1300,45374,53.1602,3.84e-05,15.31140452,472.1454256936877,472.67154758706147,1 45374U 20019Q   26109.96817226  .00025565  00000+0  84734-3 0  9995,2 45374  53.1602 333.5164 0000384  84.7681 275.3364 15.31140452336071
STARLINK-1302,45375,53.0506,0.0001905,15.60888784,383.8001068280382,386.37689574402884,1 45375U 20019R   26110.28583102  .00030333  00000+0  36089-3 0  9995,2 45375  53.0506 309.8945 0001905 150.2255 209.8866 15.60888784336420
STARLINK-1304,45376,53.045,0.0002816,15.55272684,399.4509800718888,403.2691928309796,1 45376U 20019S   26110.24790088  .00031258  00000+0  45857-3 0  9995,2 45376  53.0450 309.5033 0002816 187.3600 172.7369 15.55272684336427
STARLINK-1305,45377,53.0416,0.0006613,15.61369821,379.22772183286725,388.1709265552454,1 45377U 20019T   26110.49025124  .00099832  00000+0  11415-2 0  9999,2 45377  53.0416 289.4512 0006613 255.8570 104.1708 15.61369821336731
STARLINK-1319,45379,53.0431,0.0001487,15.70365037,356.85129515760036,358.854578564823,1 45379U 20019V   26110.55100873  .00056195  00000+0  45303-3 0  9992,2 45379  53.0431 283.3768 0001487 234.3747 125.7132 15.70365037336823
STARLINK-1266,45383,53.0484,0.0003935,15.51967452,408.3107047793901,413.65374160804276,1 45383U 20019Z   26110.21526010  .00020837  00000+0  34745-3 0  9997,2 45383  53.0484 294.0544 0003935 194.6807 165.4088 15.51967452336630
STARLINK-1267,45384,53.0498,0.0001962,15.57175491,394.5070555956745,397.1651626436933,1 45384U 20019AA  26109.92007274  .00103438  00000+0  13867-2 0  9990,2 45384  53.0498 288.0911 0001962 317.3148  42.7710 15.57175491336692
STARLINK-1272,45386,53.042,0.0005755,15.64214759,371.61132881825506,379.3847627559562,1 45386U 20019AC  26109.79275778  .00068803  00000+0  70862-3 0  9998,2 45386  53.0420 269.4763 0005755 280.8672  79.1694 15.64214759336949
STARLINK-1274,45387,53.0253,0.0005648,15.53778777,401.8733849276405,409.53641273656194,1 45387U 20019AD  26109.84514712  .00056250  00000+0  86243-3 0  9992,2 45387  53.0253 265.1782 0005648 321.2155  38.8448 15.53778777337005
STARLINK-1280,45388,53.04,0.0002048,15.70968011,354.75002929879065,357.5083847371843,1 45388U 20019AE  26110.45568640  .00044516  00000+0  35142-3 0  9995,2 45388  53.0400 276.4788 0002048 281.9037  78.1750 15.70968011336893
STARLINK-1283,45389,53.0423,8.75e-05,15.65792461,370.370068396438,371.55116047896445,1 45389U 20019AF  26109.85046392  .00048276  00000+0  47010-3 0  9997,2 45389  53.0423 268.7384 0000875 349.0288  11.0707 15.65792461336969
STARLINK-1284,45390,53.0458,0.0004128,15.59030834,387.66666781191816,393.2548221101579,1 45390U 20019AG  26109.79830764  .00068257  00000+0  85921-3 0  9990,2 45390  53.0458 292.0732 0004128 205.4194 154.6615 15.59030834336629
STARLINK-1297,45395,53.0445,0.0004599,15.62487465,377.3661693778249,383.58274019393775,1 45395U 20019AM  26110.56682149  .00081823  00000+0  89940-3 0  9993,2 45395  53.0445 287.1857 0004599 212.3537 147.7195 15.62487465335943
STARLINK-1307,45397,53.0539,0.0001365,15.53454031,405.7241734824411,407.576420414508,1 45397U 20019AP  26110.48189311  .00019486  00000+0  30864-3 0  9996,2 45397  53.0539 289.6892 0001365 113.2743 246.8411 15.53454031336543
STARLINK-1255,45399,53.0385,0.0003792,15.59702327,385.95198339957733,391.0838144749314,1 45399U 20019AR  26110.44169578  .00066876  00000+0  82096-3 0  9996,2 45399  53.0385 260.5688 0003792 300.2873  59.7763 15.59702327336937
STARLINK-1260,45404,53.1572,0.0001787,15.33333815,464.65097803609297,467.0970275684949,1 45404U 20019AW  26109.87681576  .00032962  00000+0  10160-2 0  9996,2 45404  53.1572 297.5555 0001787 256.9760 103.1042 15.33333815336286
STARLINK-1263,45405,53.1597,3.33e-05,15.30950001,472.7484737962659,473.20475796308256,1 45405U 20019AX  26109.83113713  .00025856  00000+0  86188-3 0  9994,2 45405  53.1597 298.1380 0000333  42.7560 317.3467 15.30950001336270
STARLINK-1265,45406,53.1576,0.0001385,15.33507523,464.4093323985526,466.3049802798596,1 45406U 20019AY  26109.87899294  .00032358  00000+0  99222-3 0  9992,2 45406  53.1576 297.6405 0001385 233.7310 126.3564 15.33507523336280
STARLINK-1278,45408,53.0443,0.0003501,15.63606729,374.88370108121035,379.613822191508,1 45408U 20019BA  26109.91769128  .00082841  00000+0  87160-3 0  9991,2 45408  53.0443 289.6197 0003501 248.8626 111.2013 15.63606729336397
